OBJECT_NAME,OBJECT_ID,EPOCH,MEAN_MOTION,ECCENTRICITY,INCLINATION,RA_OF_ASC_NODE,ARG_OF_PERICENTER,MEAN_ANOMALY,EPHEMERIS_TYPE,CLASSIFICATION_TYPE,NORAD_CAT_ID,ELEMENT_SET_NO,REV_AT_EPOCH,BSTAR,MEAN_MOTION_DOT,MEAN_MOTION_DDOT
STARLINK-35759,2026-117J,2026-06-17T16:11:41.213184,15.82057442,.00007879,53.1569,241.0219,93.2044,266.9069,0,U,69246,999,305,.93579314E-3,.198956E-2,0
STARLINK-37238,2026-117K,2026-06-17T16:05:17.489184,15.82036333,.00009733,53.1569,240.9915,98.1029,262.0105,0,U,69247,999,305,.57476999E-3,.120697E-2,0
STARLINK-37412,2026-117L,2026-06-17T16:00:26.220960,15.82046207,.00009417,53.1569,240.9688,105.8871,254.2256,0,U,69248,999,305,.68183075E-3,.143764E-2,0
STARLINK-37398,2026-117M,2026-06-17T16:07:08.707584,15.80923048,.00007952,53.1576,241.0003,92.0272,268.0842,0,U,69249,999,305,.61600197E-3,.122908E-2,0
STARLINK-37499,2026-117N,2026-06-17T15:57:57.937824,15.82034596,.00009269,53.1568,240.9564,86.1316,273.9813,0,U,69250,999,305,.58167983E-3,.122168E-2,0
STARLINK-37489,2026-117P,2026-06-17T15:55:25.752000,15.82067811,.00007946,53.1571,240.9461,102.7922,257.3191,0,U,69251,999,305,.97205254E-3,.206986E-2,0
STARLINK-37434,2026-117Q,2026-06-17T15:51:09.165600,15.82033365,.000093,53.1569,240.9243,106.2645,253.8480,0,U,69252,999,305,.56723585E-3,.119067E-2,0
STARLINK-37368,2026-117R,2026-06-17T15:41:26.495232,15.82028959,.00008893,53.1572,240.8784,90.5405,269.5720,0,U,69253,999,305,.48013629E-3,.100435E-2,0
STARLINK-37517,2026-117S,2026-06-17T15:39:32.424768,15.82044264,.00008092,53.1570,240.8700,131.6385,228.4708,0,U,69254,999,305,.72303184E-3,.152638E-2,0
STARLINK-37378,2026-117T,2026-06-17T15:39:03.891168,15.82151938,.00012935,53.1567,240.8686,21.4298,338.6780,0,U,69255,999,305,.20043228E-2,.44113E-2,0
STARLINK-37396,2026-117U,2026-06-17T17:06:30.370464,15.82038611,.00008021,53.1567,240.5317,85.3160,274.7954,0,U,69256,999,306,.6239703E-3,.131265E-2,0
STARLINK-37508,2026-117V,2026-06-17T15:39:06.998112,15.80859776,.00011299,53.1574,240.8651,133.7096,226.4020,0,U,69257,999,305,-.17214446E-3,-.34518E-3,0
STARLINK-37276,2026-117W,2026-06-17T16:31:57.359712,15.76753990,.00154074,53.1569,240.3665,119.5300,240.7259,0,U,69258,999,306,-.32766433E-1,-.4562456E-1,0
STARLINK-37518,2026-117X,2026-06-17T16:33:06.193728,15.80892884,.00016128,53.1567,240.3730,58.4994,301.6186,0,U,69259,999,306,.36233318E-3,.71475E-3,0
STARLINK-37478,2026-117Y,2026-06-17T16:33:25.371072,15.80927419,.00009173,53.1571,240.3756,83.9366,276.1761,0,U,69260,999,306,.59067764E-3,.117779E-2,0
STARLINK-37506,2026-117Z,2026-06-17T16:32:43.328832,15.80927251,.00012532,53.1568,240.3714,75.3017,284.8145,0,U,69261,999,306,.6907139E-3,.138173E-2,0
STARLINK-37503,2026-117AA,2026-06-17T16:32:21.058368,15.80946401,.00011752,53.1569,240.3705,78.7993,281.3161,0,U,69262,999,306,.91485854E-3,.184394E-2,0
STARLINK-37502,2026-117AB,2026-06-17T22:00:01.999584,15.80884563,.00011296,53.1572,239.2228,87.4598,131.3875,0,U,69263,999,429,-.12437445E-3,-.25188E-3,0
STARLINK-37486,2026-117AC,2026-06-17T16:29:51.196704,15.80917642,.00007577,53.1571,240.3569,68.4684,291.6420,0,U,69264,999,306,.55429288E-3,.110335E-2,0
STARLINK-37435,2026-117AD,2026-06-17T22:00:01.999584,15.80902331,.00011334,53.1571,239.2254,78.7602,138.5661,0,U,69265,999,429,-.4871151E-3,-.9591E-3,0
STARLINK-37464,2026-117AE,2026-06-17T16:25:04.563840,15.82023769,.00008542,53.1569,240.3341,71.4665,288.6451,0,U,69266,999,306,.49784585E-3,.104186E-2,0
KUIPER-00282,2026-118A,2026-06-17T20:57:59.408928,15.34193204,.00121319,51.8594,50.2637,183.9458,176.1433,0,U,69267,999,408,.47439514E-3,.15625E-3,0
KUIPER-00383,2026-118B,2026-06-17T20:53:19.587840,15.35283421,.00124557,51.8599,50.2459,206.1577,153.8780,0,U,69268,999,408,.25780601E-1,.971689E-2,0
KUIPER-00527,2026-118C,2026-06-17T22:20:18.027744,15.34760615,.00102726,51.8625,49.9021,177.0058,183.0990,0,U,69269,999,409,.21697923E-3,.7057E-4,0
KUIPER-00562,2026-118D,2026-06-17T19:56:20.128128,15.38647989,.00017989,51.8721,49.9931,118.0696,242.0473,0,U,69270,999,408,.48075388E-3,.18293E-3,0
KUIPER-00570,2026-118E,2026-06-17T20:49:58.319904,15.34614492,.00116022,51.8583,50.2262,186.8995,173.1832,0,U,69271,999,408,.44517901E-3,.14835E-3,0
KUIPER-00572,2026-118F,2026-06-17T21:58:41.183616,15.37037016,.00073203,51.8675,49.8122,173.6952,186.4128,0,U,69272,999,409,.53886633E-3,.19506E-3,0
KUIPER-00581,2026-118G,2026-06-17T22:04:36.360192,15.36666510,.00088459,51.8664,49.8370,177.4464,182.6569,0,U,69273,999,418,.53145578E-3,.19007E-3,0
KUIPER-00584,2026-118H,2026-06-17T22:00:01.999584,15.34332008,.0011581,51.8610,50.0241,189.6499,66.0738,0,U,69274,999,268,-.12829172E-3,-.4721E-4,0
KUIPER-00587,2026-118J,2026-06-17T22:03:38.544768,15.36711162,.00081675,51.8637,49.8301,180.4526,179.6454,0,U,69275,999,409,.49634398E-3,.17745E-3,0
