STARLINK-35759          
1 69246U 26117J   26168.67478256  .00198956  00000+0  93579-3 0  9995
2 69246  53.1569 241.0219 0000787  93.2044 266.9069 15.82057442  3055
STARLINK-37238          
1 69247U 26117K   26168.67034131  .00120697  00000+0  57477-3 0  9990
2 69247  53.1569 240.9915 0000973  98.1029 262.0105 15.82036333  3055
STARLINK-37412          
1 69248U 26117L   26168.66697015  .00143764  00000+0  68183-3 0  9992
2 69248  53.1569 240.9688 0000941 105.8871 254.2256 15.82046207  3050
STARLINK-37398          
1 69249U 26117M   26168.67162856  .00122908  00000+0  61600-3 0  9998
2 69249  53.1576 241.0003 0000795  92.0272 268.0842 15.80923048  3050
STARLINK-37499          
1 69250U 26117N   26168.66525391  .00122168  00000+0  58168-3 0  9999
2 69250  53.1568 240.9564 0000926  86.1316 273.9813 15.82034596  3058
STARLINK-37489          
1 69251U 26117P   26168.66349250  .00206986  00000+0  97205-3 0  9994
2 69251  53.1571 240.9461 0000794 102.7922 257.3191 15.82067811  3051
STARLINK-37434          
1 69252U 26117Q   26168.66052275  .00119067  00000+0  56724-3 0  9997
2 69252  53.1569 240.9243 0000930 106.2645 253.8480 15.82033365  3059
STARLINK-37368          
1 69253U 26117R   26168.65377888  .00100435  00000+0  48014-3 0  9999
2 69253  53.1572 240.8784 0000889  90.5405 269.5720 15.82028959  3059
STARLINK-37517          
1 69254U 26117S   26168.65245862  .00152638  00000+0  72303-3 0  9996
2 69254  53.1570 240.8700 0000809 131.6385 228.4708 15.82044264  3059
STARLINK-37378          
1 69255U 26117T   26168.65212837  .00441130  00000+0  20043-2 0  9994
2 69255  53.1567 240.8686 0001293  21.4298 338.6780 15.82151938  3057
STARLINK-37396          
1 69256U 26117U   26168.71285151  .00131265  00000+0  62397-3 0  9995
2 69256  53.1567 240.5317 0000802  85.3160 274.7954 15.82038611  3064
STARLINK-37508          
1 69257U 26117V   26168.65216433 -.00034518  00000+0 -17214-3 0  9999
2 69257  53.1574 240.8651 0001129 133.7096 226.4020 15.80859776  3054
STARLINK-37276          
1 69258U 26117W   26168.68885833 -.04562456  00000+0 -32766-1 0  9997
2 69258  53.1569 240.3665 0015407 119.5300 240.7259 15.76753990  3063
STARLINK-37518          
1 69259U 26117X   26168.68965502  .00071475  00000+0  36233-3 0  9995
2 69259  53.1567 240.3730 0001612  58.4994 301.6186 15.80892884  3065
STARLINK-37478          
1 69260U 26117Y   26168.68987698  .00117779  00000+0  59068-3 0  9996
2 69260  53.1571 240.3756 0000917  83.9366 276.1761 15.80927419  3061
STARLINK-37506          
1 69261U 26117Z   26168.68939038  .00138173  00000+0  69071-3 0  9998
2 69261  53.1568 240.3714 0001253  75.3017 284.8145 15.80927251  3060
STARLINK-37503          
1 69262U 26117AA  26168.68913262  .00184394  00000+0  91486-3 0  9991
2 69262  53.1569 240.3705 0001175  78.7993 281.3161 15.80946401  3063
STARLINK-37502          
1 69263U 26117AB  26168.91668981 -.00025188  00000+0 -12437-3 0  9999
2 69263  53.1572 239.2228 0001129  87.4598 131.3875 15.80884563  4294
STARLINK-37486          
1 69264U 26117AC  26168.68739811  .00110335  00000+0  55429-3 0  9990
2 69264  53.1571 240.3569 0000757  68.4684 291.6420 15.80917642  3061
STARLINK-37435          
1 69265U 26117AD  26168.91668981 -.00095910  00000+0 -48712-3 0  9996
2 69265  53.1571 239.2254 0001133  78.7602 138.5661 15.80902331  4294
STARLINK-37464          
1 69266U 26117AE  26168.68408060  .00104186  00000+0  49785-3 0  9996
2 69266  53.1569 240.3341 0000854  71.4665 288.6451 15.82023769  3069
KUIPER-00282            
1 69267U 26118A   26168.87360427  .00015625  00000+0  47440-3 0  9998
2 69267  51.8594  50.2637 0012131 183.9458 176.1433 15.34193204  4082
KUIPER-00383            
1 69268U 26118B   26168.87036560  .00971689  00000+0  25781-1 0  9990
2 69268  51.8599  50.2459 0012455 206.1577 153.8780 15.35283421  4088
KUIPER-00527            
1 69269U 26118C   26168.93076421  .00007057  00000+0  21698-3 0  9992
2 69269  51.8625  49.9021 0010272 177.0058 183.0990 15.34760615  4097
KUIPER-00562            
1 69270U 26118D   26168.83078852  .00018293  00000+0  48075-3 0  9995
2 69270  51.8721  49.9931 0001798 118.0696 242.0473 15.38647989  4085
KUIPER-00570            
1 69271U 26118E   26168.86803611  .00014835  00000+0  44518-3 0  9994
2 69271  51.8583  50.2262 0011602 186.8995 173.1832 15.34614492  4086
KUIPER-00572            
1 69272U 26118F   26168.91575444  .00019506  00000+0  53887-3 0  9990
2 69272  51.8675  49.8122 0007320 173.6952 186.4128 15.37037016  4097
KUIPER-00581            
1 69273U 26118G   26168.91986528  .00019007  00000+0  53146-3 0  9994
2 69273  51.8664  49.8370 0008845 177.4464 182.6569 15.36666510  4187
KUIPER-00584            
1 69274U 26118H   26168.91668981 -.00004721  00000+0 -12829-3 0  9997
2 69274  51.8610  50.0241 0011581 189.6499  66.0738 15.34332008  2680
KUIPER-00587            
1 69275U 26118J   26168.91919612  .00017745  00000+0  49634-3 0  9990
2 69275  51.8637  49.8301 0008167 180.4526 179.6454 15.36711162  4096
